[{"OBJECT_NAME":"STARLINK-4754","OBJECT_ID":"2022-114AA","EPOCH":"2025-12-19T19:33:27.395424","MEAN_MOTION":15.08835338,"ECCENTRICITY":0.0001299,"INCLINATION":53.2188,"RA_OF_ASC_NODE":292.6671,"ARG_OF_PERICENTER":96.2608,"MEAN_ANOMALY":263.8533,"EPHEMERIS_TYPE":0,"CLASSIFICATION_TYPE":"U","NORAD_CAT_ID":53842,"ELEMENT_SET_NO":999,"REV_AT_EPOCH":18091,"BSTAR":4.362e-5,"MEAN_MOTION_DOT":4.06e-6,"MEAN_MOTION_DDOT":0},{"OBJECT_NAME":"STARLINK-4769","OBJECT_ID":"2022-114AB","EPOCH":"2025-12-19T19:49:21.571104","MEAN_MOTION":15.08845797,"ECCENTRICITY":0.0001642,"INCLINATION":53.219,"RA_OF_ASC_NODE":292.7332,"ARG_OF_PERICENTER":86.2069,"MEAN_ANOMALY":273.9111,"EPHEMERIS_TYPE":0,"CLASSIFICATION_TYPE":"U","NORAD_CAT_ID":53843,"ELEMENT_SET_NO":999,"REV_AT_EPOCH":18091,"BSTAR":0.00014638,"MEAN_MOTION_DOT":2.043e-5,"MEAN_MOTION_DDOT":0},{"OBJECT_NAME":"STARLINK-4745","OBJECT_ID":"2022-114AC","EPOCH":"2025-12-19T00:18:13.147488","MEAN_MOTION":15.08831756,"ECCENTRICITY":0.00016334,"INCLINATION":53.2208,"RA_OF_ASC_NODE":296.1929,"ARG_OF_PERICENTER":101.2435,"MEAN_ANOMALY":258.874,"EPHEMERIS_TYPE":0,"CLASSIFICATION_TYPE":"U","NORAD_CAT_ID":53844,"ELEMENT_SET_NO":999,"REV_AT_EPOCH":18079,"BSTAR":-2.5604365e-5,"MEAN_MOTION_DOT":-6.95e-6,"MEAN_MOTION_DDOT":0},{"OBJECT_NAME":"STARLINK-4753","OBJECT_ID":"2022-114AD","EPOCH":"2025-12-19T05:20:17.636640","MEAN_MOTION":15.08837827,"ECCENTRICITY":0.0001587,"INCLINATION":53.2189,"RA_OF_ASC_NODE":295.3849,"ARG_OF_PERICENTER":93.1836,"MEAN_ANOMALY":266.9338,"EPHEMERIS_TYPE":0,"CLASSIFICATION_TYPE":"U","NORAD_CAT_ID":53845,"ELEMENT_SET_NO":999,"REV_AT_EPOCH":18082,"BSTAR":6.5224e-5,"MEAN_MOTION_DOT":7.5e-6,"MEAN_MOTION_DDOT":0},{"OBJECT_NAME":"STARLINK-4746","OBJECT_ID":"2022-114AE","EPOCH":"2025-12-19T12:50:41.563392","MEAN_MOTION":15.08833906,"ECCENTRICITY":0.0001336,"INCLINATION":53.219,"RA_OF_ASC_NODE":293.7644,"ARG_OF_PERICENTER":89.1024,"MEAN_ANOMALY":271.0121,"EPHEMERIS_TYPE":0,"CLASSIFICATION_TYPE":"U","NORAD_CAT_ID":53846,"ELEMENT_SET_NO":999,"REV_AT_EPOCH":18087,"BSTAR":-6.9843e-5,"MEAN_MOTION_DOT":-1.399e-5,"MEAN_MOTION_DDOT":0},{"OBJECT_NAME":"STARLINK-4777","OBJECT_ID":"2022-114AF","EPOCH":"2025-12-19T13:06:36.247104","MEAN_MOTION":15.08838242,"ECCENTRICITY":0.0001628,"INCLINATION":53.2195,"RA_OF_ASC_NODE":293.8323,"ARG_OF_PERICENTER":92.0037,"MEAN_ANOMALY":268.1142,"EPHEMERIS_TYPE":0,"CLASSIFICATION_TYPE":"U","NORAD_CAT_ID":53847,"ELEMENT_SET_NO":999,"REV_AT_EPOCH":18087,"BSTAR":2.2125e-5,"MEAN_MOTION_DOT":6.4e-7,"MEAN_MOTION_DDOT":0},{"OBJECT_NAME":"STARLINK-4780","OBJECT_ID":"2022-114AG","EPOCH":"2025-12-19T03:07:45.610464","MEAN_MOTION":15.08841568,"ECCENTRICITY":0.00020872,"INCLINATION":53.2204,"RA_OF_ASC_NODE":295.5013,"ARG_OF_PERICENTER":95.9938,"MEAN_ANOMALY":264.1292,"EPHEMERIS_TYPE":0,"CLASSIFICATION_TYPE":"U","NORAD_CAT_ID":53848,"ELEMENT_SET_NO":999,"REV_AT_EPOCH":18081,"BSTAR":-8.656541e-6,"MEAN_MOTION_DOT":-4.26e-6,"MEAN_MOTION_DDOT":0},{"OBJECT_NAME":"STARLINK-4770","OBJECT_ID":"2022-114AH","EPOCH":"2025-12-19T06:34:26.987808","MEAN_MOTION":15.08836039,"ECCENTRICITY":0.0001499,"INCLINATION":53.2193,"RA_OF_ASC_NODE":294.9763,"ARG_OF_PERICENTER":95.1188,"MEAN_ANOMALY":264.9975,"EPHEMERIS_TYPE":0,"CLASSIFICATION_TYPE":"U","NORAD_CAT_ID":53849,"ELEMENT_SET_NO":999,"REV_AT_EPOCH":18083,"BSTAR":5.4782e-5,"MEAN_MOTION_DOT":5.84e-6,"MEAN_MOTION_DDOT":0},{"OBJECT_NAME":"STARLINK-4767","OBJECT_ID":"2022-114AJ","EPOCH":"2025-12-19T20:21:04.718592","MEAN_MOTION":15.08840821,"ECCENTRICITY":0.0001494,"INCLINATION":53.2174,"RA_OF_ASC_NODE":292.1591,"ARG_OF_PERICENTER":92.3179,"MEAN_ANOMALY":267.7984,"EPHEMERIS_TYPE":0,"CLASSIFICATION_TYPE":"U","NORAD_CAT_ID":53850,"ELEMENT_SET_NO":999,"REV_AT_EPOCH":18092,"BSTAR":5.6485e-5,"MEAN_MOTION_DOT":6.11e-6,"MEAN_MOTION_DDOT":0},{"OBJECT_NAME":"STARLINK-4755","OBJECT_ID":"2022-114AK","EPOCH":"2025-12-19T12:45:20.659968","MEAN_MOTION":15.0892173,"ECCENTRICITY":0.0001121,"INCLINATION":53.2215,"RA_OF_ASC_NODE":293.7412,"ARG_OF_PERICENTER":86.2511,"MEAN_ANOMALY":273.8609,"EPHEMERIS_TYPE":0,"CLASSIFICATION_TYPE":"U","NORAD_CAT_ID":53851,"ELEMENT_SET_NO":999,"REV_AT_EPOCH":18087,"BSTAR":-0.0010826,"MEAN_MOTION_DOT":-0.00017515,"MEAN_MOTION_DDOT":0},{"OBJECT_NAME":"STARLINK-4797","OBJECT_ID":"2022-114AL","EPOCH":"2025-12-19T13:04:37.466112","MEAN_MOTION":15.08832839,"ECCENTRICITY":0.0001421,"INCLINATION":53.2176,"RA_OF_ASC_NODE":288.8376,"ARG_OF_PERICENTER":88.1953,"MEAN_ANOMALY":271.9202,"EPHEMERIS_TYPE":0,"CLASSIFICATION_TYPE":"U","NORAD_CAT_ID":53852,"ELEMENT_SET_NO":999,"REV_AT_EPOCH":18094,"BSTAR":1.3332e-5,"MEAN_MOTION_DOT":-7.6e-7,"MEAN_MOTION_DDOT":0},{"OBJECT_NAME":"STARLINK-4794","OBJECT_ID":"2022-114AM","EPOCH":"2025-12-19T03:02:27.004416","MEAN_MOTION":15.08840577,"ECCENTRICITY":0.00014981,"INCLINATION":53.2189,"RA_OF_ASC_NODE":295.4759,"ARG_OF_PERICENTER":94.8962,"MEAN_ANOMALY":265.2201,"EPHEMERIS_TYPE":0,"CLASSIFICATION_TYPE":"U","NORAD_CAT_ID":53853,"ELEMENT_SET_NO":999,"REV_AT_EPOCH":18081,"BSTAR":3.6775771e-5,"MEAN_MOTION_DOT":2.97e-6,"MEAN_MOTION_DDOT":0},{"OBJECT_NAME":"STARLINK-4800","OBJECT_ID":"2022-114AN","EPOCH":"2025-12-19T20:06:37.228032","MEAN_MOTION":15.08835198,"ECCENTRICITY":0.0001413,"INCLINATION":53.2174,"RA_OF_ASC_NODE":282.8224,"ARG_OF_PERICENTER":92.3242,"MEAN_ANOMALY":267.7911,"EPHEMERIS_TYPE":0,"CLASSIFICATION_TYPE":"U","NORAD_CAT_ID":53854,"ELEMENT_SET_NO":999,"REV_AT_EPOCH":18105,"BSTAR":1.0031e-5,"MEAN_MOTION_DOT":-1.28e-6,"MEAN_MOTION_DDOT":0},{"OBJECT_NAME":"STARLINK-4703","OBJECT_ID":"2022-114AP","EPOCH":"2025-12-19T06:19:55.115040","MEAN_MOTION":15.08826942,"ECCENTRICITY":0.0001878,"INCLINATION":53.2199,"RA_OF_ASC_NODE":294.9109,"ARG_OF_PERICENTER":102.3427,"MEAN_ANOMALY":257.7776,"EPHEMERIS_TYPE":0,"CLASSIFICATION_TYPE":"U","NORAD_CAT_ID":53855,"ELEMENT_SET_NO":999,"REV_AT_EPOCH":18083,"BSTAR":-6.9543e-5,"MEAN_MOTION_DOT":-1.394e-5,"MEAN_MOTION_DDOT":0},{"OBJECT_NAME":"STARLINK-4795","OBJECT_ID":"2022-114AQ","EPOCH":"2025-12-19T19:45:23.488128","MEAN_MOTION":15.08841229,"ECCENTRICITY":0.0001384,"INCLINATION":53.2179,"RA_OF_ASC_NODE":282.7386,"ARG_OF_PERICENTER":94.8017,"MEAN_ANOMALY":265.3133,"EPHEMERIS_TYPE":0,"CLASSIFICATION_TYPE":"U","NORAD_CAT_ID":53856,"ELEMENT_SET_NO":999,"REV_AT_EPOCH":18105,"BSTAR":5.8265e-5,"MEAN_MOTION_DOT":6.4e-6,"MEAN_MOTION_DDOT":0},{"OBJECT_NAME":"STARLINK-4809","OBJECT_ID":"2022-114AR","EPOCH":"2025-12-19T20:15:47.404224","MEAN_MOTION":15.08841372,"ECCENTRICITY":0.0001373,"INCLINATION":53.2169,"RA_OF_ASC_NODE":292.136,"ARG_OF_PERICENTER":89.3591,"MEAN_ANOMALY":270.7558,"EPHEMERIS_TYPE":0,"CLASSIFICATION_TYPE":"U","NORAD_CAT_ID":53857,"ELEMENT_SET_NO":999,"REV_AT_EPOCH":18092,"BSTAR":0.00029935,"MEAN_MOTION_DOT":4.48e-5,"MEAN_MOTION_DDOT":0}]
