STARLINK-4754           
1 53842U 22114AA  25353.81490041  .00000406  00000+0  43620-4 0  9995
2 53842  53.2188 292.6671 0001299  96.2608 263.8533 15.08835338180919
STARLINK-4769           
1 53843U 22114AB  25353.82594411  .00002043  00000+0  14638-3 0  9998
2 53843  53.2190 292.7332 0001642  86.2069 273.9111 15.08845797180914
STARLINK-4745           
1 53844U 22114AC  25353.01265217 -.00000695  00000+0 -25604-4 0  9998
2 53844  53.2208 296.1929 0001633 101.2435 258.8740 15.08831756180796
STARLINK-4753           
1 53845U 22114AD  25353.22242635  .00000750  00000+0  65224-4 0  9993
2 53845  53.2189 295.3849 0001587  93.1836 266.9338 15.08837827180821
STARLINK-4746           
1 53846U 22114AE  25353.53520328 -.00001399  00000+0 -69843-4 0  9999
2 53846  53.2190 293.7644 0001336  89.1024 271.0121 15.08833906180871
STARLINK-4777           
1 53847U 22114AF  25353.54625286  .00000064  00000+0  22125-4 0  9998
2 53847  53.2195 293.8323 0001628  92.0037 268.1142 15.08838242180871
STARLINK-4780           
1 53848U 22114AG  25353.13038901 -.00000426  00000+0 -86565-5 0  9999
2 53848  53.2204 295.5013 0002087  95.9938 264.1292 15.08841568180811
STARLINK-4770           
1 53849U 22114AH  25353.27392347  .00000584  00000+0  54782-4 0  9990
2 53849  53.2193 294.9763 0001499  95.1188 264.9975 15.08836039180834
STARLINK-4767           
1 53850U 22114AJ  25353.84797128  .00000611  00000+0  56485-4 0  9994
2 53850  53.2174 292.1591 0001494  92.3179 267.7984 15.08840821180923
STARLINK-4755           
1 53851U 22114AK  25353.53148912 -.00017515  00000+0 -10826-2 0  9992
2 53851  53.2215 293.7412 0001121  86.2511 273.8609 15.08921730180873
STARLINK-4797           
1 53852U 22114AL  25353.54487808 -.00000076  00000+0  13332-4 0  9994
2 53852  53.2176 288.8376 0001421  88.1953 271.9202 15.08832839180945
STARLINK-4794           
1 53853U 22114AM  25353.12670144  .00000297  00000+0  36776-4 0  9997
2 53853  53.2189 295.4759 0001498  94.8962 265.2201 15.08840577180816
STARLINK-4800           
1 53854U 22114AN  25353.83793088 -.00000128  00000+0  10031-4 0  9999
2 53854  53.2174 282.8224 0001413  92.3242 267.7911 15.08835198181054
STARLINK-4703           
1 53855U 22114AP  25353.26383235 -.00001394  00000+0 -69543-4 0  9995
2 53855  53.2199 294.9109 0001878 102.3427 257.7776 15.08826942180830
STARLINK-4795           
1 53856U 22114AQ  25353.82318852  .00000640  00000+0  58265-4 0  9991
2 53856  53.2179 282.7386 0001384  94.8017 265.3133 15.08841229181055
STARLINK-4809           
1 53857U 22114AR  25353.84429866  .00004480  00000+0  29935-3 0  9999
2 53857  53.2169 292.1360 0001373  89.3591 270.7558 15.08841372180921
